ONEWEB-0176             
1 48210U 21031A   25190.95343116 -.00000221  00000+0 -63077-3 0  9993
2 48210  87.9042 357.7924 0001862  94.1389 265.9954 13.14504222203352
ONEWEB-0184             
1 48211U 21031B   25190.85034309  .00000253  00000+0  64683-3 0  9991
2 48211  87.9039 357.7826 0002709  85.9143 274.2297 13.14505119203312
ONEWEB-0179             
1 48212U 21031C   25190.82101547 -.00000010  00000+0 -61815-4 0  9996
2 48212  87.9042 357.8061 0001749  90.7991 269.3339 13.14503361203350
ONEWEB-0180             
1 48213U 21031D   25190.92964064  .00000095  00000+0  22208-3 0  9992
2 48213  87.9040 357.7719 0001948  86.5421 273.5932 13.14503071203253
ONEWEB-0218             
1 48214U 21031E   25190.95185087 -.00000205  00000+0 -58645-3 0  9995
2 48214  87.9040 357.7683 0002665  79.6690 280.4740 13.14502154203415
ONEWEB-0209             
1 48215U 21031F   25190.94074564 -.00000132  00000+0 -38966-3 0  9995
2 48215  87.9043 357.8139 0001723  88.2816 271.8511 13.14503238203410
ONEWEB-0198             
1 48216U 21031G   25190.84877505  .00000083  00000+0  18944-3 0  9998
2 48216  87.9043 357.8339 0002031  83.8713 276.2648 13.14502041203515
ONEWEB-0189             
1 48217U 21031H   25190.86144919 -.00000115  00000+0 -34412-3 0  9993
2 48217  87.9042 357.8049 0002010  81.8375 278.2982 13.14503172203252
